{
  "norad_id": 67882,
  "name": "STARLINK-36817",
  "history": [
    {
      "epoch": "2026-03-28T19:09:43.568352Z",
      "apogee_km": 344.9995579675124,
      "perigee_km": 343.00442711452524,
      "latitude_deg": -1.0199137811983803e-05,
      "longitude_deg": -92.47412896874829,
      "height_km": 347.28337182948826,
      "semi_major_axis_km": 6722.1389925410185,
      "eccentricity": 0.0001484,
      "inclination_deg": 97.2865,
      "raan_deg": 21.1711,
      "arg_perigee_deg": 96.6427,
      "mean_anomaly_deg": 263.5007,
      "mean_motion_rev_day": 15.75221134
    }
  ]
}